NORAD_CAT_ID,OBJECT_NAME,OBJECT_TYPE,EPOCH,MEAN_MOTION,ECCENTRICITY,INCLINATION,RA_OF_ASC_NODE,ARG_OF_PERICENTER,MEAN_ANOMALY,BSTAR,MEAN_MOTION_DOT,MEAN_MOTION_DDOT,TLE_LINE0,TLE_LINE1,TLE_LINE2,SEMIMAJOR_AXIS,PERIOD,APOGEE,PERIGEE,DECAYED
49766.0,STARLINK-3190,PAYLOAD,2024-03-06 13:49:30,15.0884712,0.0001118,53.2167,190.2063,94.5257,265.5863,-4.9979e-05,-1.083e-05,0.0,0 STARLINK-3190,1 49766U 21115AU  24066.57604833 -.00001083  00000-0 -49979-4 0  9992,2 49766  53.2167 190.2063 0001118  94.5257 265.5863 15.08847120125001,6917.859,95.437,540.497,538.95,0.0
49766.0,STARLINK-3190,PAYLOAD,2024-03-07 13:40:19,15.08825021,0.000132,53.2168,185.7455,92.2916,267.8227,6.2253e-05,7.03e-06,0.0,0 STARLINK-3190,1 49766U 21115AU  24067.56966439  .00000703  00000-0  62253-4 0  9991,2 49766  53.2168 185.7455 0001320  92.2916 267.8227 15.08825021125159,6917.926,95.439,540.704,538.878,0.0
49766.0,STARLINK-3190,PAYLOAD,2024-03-08 11:55:42,15.0884296,0.0001394,53.2173,181.5836,97.6874,262.4277,5.3185e-05,5.59e-06,0.0,0 STARLINK-3190,1 49766U 21115AU  24068.49701696  .00000559  00000-0  53185-4 0  9999,2 49766  53.2173 181.5836 0001394  97.6874 262.4277 15.08842960126401,6917.871,95.437,540.701,538.772,0.0
49766.0,STARLINK-3190,PAYLOAD,2024-03-09 00:38:46,15.08853155,0.0001214,53.2171,179.2012,82.1991,277.9139,0.00012908,1.768e-05,0.0,0 STARLINK-3190,1 49766U 21115AU  24069.02692450  .00001768  00000-0  12908-3 0  9996,2 49766  53.2171 179.2012 0001214  82.1991 277.9139 15.08853155126483,6917.84,95.437,540.545,538.865,0.0
49766.0,STARLINK-3190,PAYLOAD,2024-03-09 13:21:53,15.08829299,0.0001374,53.2162,176.8256,88.1875,271.9275,5.8362e-05,6.41e-06,0.0,0 STARLINK-3190,1 49766U 21115AU  24069.55686576  .00000641  00000-0  58362-4 0  9990,2 49766  53.2162 176.8256 0001374  88.1875 271.9275 15.08829299126566,6917.913,95.438,540.729,538.828,0.0
49766.0,STARLINK-3190,PAYLOAD,2024-03-10 00:29:34,15.08843185,0.0001426,53.2149,174.7415,94.1279,265.9876,7.9434e-05,9.77e-06,0.0,0 STARLINK-3190,1 49766U 21115AU  24070.02053414  .00000977  00000-0  79434-4 0  9998,2 49766  53.2149 174.7415 0001426  94.1279 265.9876 15.08843185126636,6917.871,95.437,540.722,538.749,0.0
49766.0,STARLINK-3190,PAYLOAD,2024-03-10 13:12:39,15.08837272,0.0001527,53.215,172.362,103.4761,256.6401,-1.734e-05,-5.64e-06,0.0,0 STARLINK-3190,1 49766U 21115AU  24070.55046157 -.00000564  00000-0 -17340-4 0  9994,2 49766  53.2150 172.3620 0001527 103.4761 256.6401 15.08837272126712,6917.889,95.438,540.81,538.697,0.0
49766.0,STARLINK-3190,PAYLOAD,2024-03-11 13:03:27,15.08830129,0.000128,53.2177,167.9041,87.3173,272.7965,0.00015064,2.11e-05,0.0,0 STARLINK-3190,1 49766U 21115AU  24071.54406291  .00002110  00000-0  15064-3 0  9990,2 49766  53.2177 167.9041 0001280  87.3173 272.7965 15.08830129125752,6917.911,95.438,540.661,538.89,0.0
49766.0,STARLINK-3190,PAYLOAD,2024-03-12 11:18:51,15.08832632,0.0001497,53.2173,163.7416,88.9994,271.1169,9.3315e-05,1.197e-05,0.0,0 STARLINK-3190,1 49766U 21115AU  24072.47142417  .00001197  00000-0  93315-4 0  9990,2 49766  53.2173 163.7416 0001497  88.9994 271.1169 15.08832632127006,6917.903,95.438,540.804,538.732,0.0
49766.0,STARLINK-3190,PAYLOAD,2024-03-12 22:26:32,15.08845598,0.0001441,53.2175,161.6584,90.3889,269.7269,9.4468e-05,1.216e-05,0.0,0 STARLINK-3190,1 49766U 21115AU  24072.93509585  .00001216  00000-0  94468-4 0  9996,2 49766  53.2175 161.6584 0001441  90.3889 269.7269 15.08845598125962,6917.863,95.437,540.725,538.731,0.0
49766.0,STARLINK-3190,PAYLOAD,2024-03-13 12:45:01,15.0883354,0.0001461,53.2174,158.9837,86.0879,274.028,6.3077e-05,7.16e-06,0.0,0 STARLINK-3190,1 49766U 21115AU  24073.53126843  .00000716  00000-0  63077-4 0  9991,2 49766  53.2174 158.9837 0001461  86.0879 274.0280 15.08833540127164,6917.9,95.438,540.776,538.754,0.0
49766.0,STARLINK-3190,PAYLOAD,2024-03-14 04:38:52,15.08836437,0.0001438,53.2179,156.0096,90.3437,269.772,5.9048e-05,6.52e-06,0.0,0 STARLINK-3190,1 49766U 21115AU  24074.19366822  .00000652  00000-0  59048-4 0  9999,2 49766  53.2179 156.0096 0001438  90.3437 269.7720 15.08836437126153,6917.891,95.438,540.751,538.761,0.0
49766.0,STARLINK-3190,PAYLOAD,2024-03-14 11:00:25,15.08837619,0.0001515,53.2178,154.8223,95.0302,265.0863,9.4872e-05,1.222e-05,0.0,0 STARLINK-3190,1 49766U 21115AU  24074.45862691  .00001222  00000-0  94872-4 0  9991,2 49766  53.2178 154.8223 0001515  95.0302 265.0863 15.08837619126193,6917.888,95.438,540.801,538.705,0.0
49766.0,STARLINK-3190,PAYLOAD,2024-03-15 04:29:40,15.08812427,0.0001461,53.2163,151.5491,82.7873,277.3285,0.00055478,8.546e-05,0.0,0 STARLINK-3190,1 49766U 21115AU  24075.18727267  .00008546  00000-0  55478-3 0  9995,2 49766  53.2163 151.5491 0001461  82.7873 277.3285 15.08812427127414,6917.965,95.439,540.84,538.819,0.0
49766.0,STARLINK-3190,PAYLOAD,2024-03-15 12:26:34,15.08851617,0.0001483,53.2172,150.0634,82.311,277.8051,0.00021141,3.079e-05,0.0,0 STARLINK-3190,1 49766U 21115AU  24075.51845649  .00003079  00000-0  21141-3 0  9993,2 49766  53.2172 150.0634 0001483  82.3110 277.8051 15.08851617127466,6917.845,95.437,540.736,538.684,0.0
49766.0,STARLINK-3190,PAYLOAD,2024-03-15 14:01:57,15.08854012,0.0001507,53.216,149.7659,80.417,279.6993,0.00025678,3.803e-05,0.0,0 STARLINK-3190,1 49766U 21115AU  24075.58469670  .00003803  00000-0  25678-3 0  9990,2 49766  53.2160 149.7659 0001507  80.4170 279.6993 15.08854012126362,6917.838,95.437,540.745,538.66,0.0
49766.0,STARLINK-3190,PAYLOAD,2024-03-16 12:17:22,15.08840849,0.0001397,53.2166,145.6011,110.5865,249.5277,3.2665e-05,2.32e-06,0.0,0 STARLINK-3190,1 49766U 21115AU  24076.51206224  .00000232  00000-0  32665-4 0  9996,2 49766  53.2166 145.6011 0001397 110.5865 249.5277 15.08840849127611,6917.878,95.438,540.709,538.776,0.0
49766.0,STARLINK-3190,PAYLOAD,2024-03-16 13:52:45,15.08830522,0.0001453,53.2171,145.3069,68.3915,291.7231,0.00011949,1.614e-05,0.0,0 STARLINK-3190,1 49766U 21115AU  24076.57830957  .00001614  00000-0  11949-3 0  9994,2 49766  53.2171 145.3069 0001453  68.3915 291.7231 15.08830522126510,6917.909,95.438,540.78,538.769,0.0
49766.0,STARLINK-3190,PAYLOAD,2024-03-17 10:32:46,15.08840543,0.0001646,53.2172,141.4409,72.4876,287.6296,-7.1589e-05,-1.427e-05,0.0,0 STARLINK-3190,1 49766U 21115AU  24077.43942715 -.00001427  00000-0 -71589-4 0  9997,2 49766  53.2172 141.4409 0001646  72.4876 287.6296 15.08840543127758,6917.879,95.438,540.882,538.605,0.0
49766.0,STARLINK-3190,PAYLOAD,2024-03-18 10:23:33,15.08834673,0.0001543,53.2161,136.9785,82.814,277.3027,0.00010506,1.384e-05,0.0,0 STARLINK-3190,1 49766U 21115AU  24078.43302433  .00001384  00000-0  10506-3 0  9996,2 49766  53.2161 136.9785 0001543  82.8140 277.3027 15.08834673126795,6917.897,95.438,540.829,538.694,0.0
49766.0,STARLINK-3190,PAYLOAD,2024-03-19 10:14:20,15.0883992,0.0001646,53.2168,132.5173,108.0147,252.1024,7.9603e-05,9.79e-06,0.0,0 STARLINK-3190,1 49766U 21115AU  24079.42662366  .00000979  00000-0  79603-4 0  9993,2 49766  53.2168 132.5173 0001646 108.0147 252.1024 15.08839920128056,6917.881,95.438,540.884,538.607,0.0
49766.0,STARLINK-3190,PAYLOAD,2024-03-20 10:05:08,15.08831969,0.0001468,53.2162,128.0509,100.7053,259.4104,-2.8738e-05,-7.45e-06,0.0,0 STARLINK-3190,1 49766U 21115AU  24080.42023284 -.00000745  00000-0 -28738-4 0  9991,2 49766  53.2162 128.0509 0001468 100.7053 259.4104 15.08831969128201,6917.905,95.438,540.785,538.754,0.0
49766.0,STARLINK-3190,PAYLOAD,2024-03-21 11:31:17,15.08844532,0.0001454,53.2164,123.2988,95.9314,264.1844,8.6583e-05,1.09e-05,0.0,0 STARLINK-3190,1 49766U 21115AU  24081.48006493  .00001090  00000-0  86583-4 0  9995,2 49766  53.2164 123.2988 0001454  95.9314 264.1844 15.08844532128362,6917.867,95.437,540.737,538.726,0.0
49766.0,STARLINK-3190,PAYLOAD,2024-03-22 09:46:41,15.088434,0.0001484,53.217,119.1361,91.7238,268.3924,0.00019519,2.82e-05,0.0,0 STARLINK-3190,1 49766U 21115AU  24082.40742336  .00002820  00000-0  19519-3 0  9997,2 49766  53.2170 119.1361 0001484  91.7238 268.3924 15.08843400127390,6917.87,95.437,540.762,538.708,0.0
49766.0,STARLINK-3190,PAYLOAD,2024-03-23 01:40:33,15.08842348,0.0001553,53.2174,116.1635,94.3196,265.7973,5.8431e-05,6.42e-06,0.0,0 STARLINK-3190,1 49766U 21115AU  24083.06982700  .00000642  00000-0  58431-4 0  9998,2 49766  53.2174 116.1635 0001553  94.3196 265.7973 15.08842348128604,6917.873,95.437,540.813,538.664,0.0
49766.0,STARLINK-3190,PAYLOAD,2024-03-23 09:37:29,15.08832048,0.0001421,53.2169,114.6764,86.2894,273.8261,-7.0735e-05,-1.413e-05,0.0,0 STARLINK-3190,1 49766U 21115AU  24083.40104012 -.00001413  00000-0 -70735-4 0  9998,2 49766  53.2169 114.6764 0001421  86.2894 273.8261 15.08832048128654,6917.905,95.438,540.753,538.787,0.0
49766.0,STARLINK-3190,PAYLOAD,2024-03-23 19:09:48,15.08844257,0.0001254,53.2169,112.8857,85.2594,274.8541,-0.00015699,-2.786e-05,0.0,0 STARLINK-3190,1 49766U 21115AU  24083.79847274 -.00002786  00000-0 -15699-3 0  9995,2 49766  53.2169 112.8857 0001254  85.2594 274.8541 15.08844257128711,6917.867,95.437,540.6,538.865,0.0
49766.0,STARLINK-3190,PAYLOAD,2024-03-24 09:28:15,15.08856319,0.0001594,53.2168,110.2163,74.2404,285.8764,0.00014822,2.073e-05,0.0,0 STARLINK-3190,1 49766U 21115AU  24084.39461867  .00002073  00000-0  14822-3 0  9996,2 49766  53.2168 110.2163 0001594  74.2404 285.8764 15.08856319128808,6917.831,95.437,540.798,538.593,0.0
49766.0,STARLINK-3190,PAYLOAD,2024-03-24 19:00:33,15.08859045,0.0001406,53.2172,108.4296,86.5302,273.5851,0.00022481,3.294e-05,0.0,0 STARLINK-3190,1 49766U 21115AU  24084.79205169  .00003294  00000-0  22481-3 0  9997,2 49766  53.2172 108.4296 0001406  86.5302 273.5851 15.08859045127757,6917.822,95.436,540.66,538.715,0.0
49766.0,STARLINK-3190,PAYLOAD,2024-03-25 06:08:16,15.08837173,0.0001674,53.2173,106.3454,120.1269,239.9889,0.00015147,2.123e-05,0.0,0 STARLINK-3190,1 49766U 21115AU  24085.25574806  .00002123  00000-0  15147-3 0  9997,2 49766  53.2173 106.3454 0001674 120.1269 239.9889 15.08837173128931,6917.889,95.438,540.912,538.596,0.0
